{
  "type": "FeatureCollection",
  "name": "Anak Krakatau 2026 Impact Areas",
  "generated_at": "2026-10-01T05:34:09+00:00",
  "features": [
    {
      "type": "Feature",
      "properties": {
        "name": "Banten",
        "country": "Indonesia",
        "impact_status": "mentioned in source",
        "event": "Anak Krakatau 2026",
        "source_url": "http://geologi.esdm.go.id/media-center/laporan-khusus-penurunan-tingkat-aktivitas-gunungapi-anak-krakatau-provinsi-lampung-dari-level-iii-siaga-menjadi-level-ii-waspada-tanggal-21-september-2026-pukul-18-30-wib",
        "source_date": "2026-09-27",
        "last_updated": "2026-10-01T05:34:09+00:00",
        "note": "Approximate analytical coverage derived from keyword-detected official reporting; not an administrative boundary."
      },
      "geometry": {
        "type": "Polygon",
        "coordinates": [
          [
            [
              105.05,
              -7.05
            ],
            [
              106.85,
              -7.05
            ],
            [
              106.85,
              -5.85
            ],
            [
              105.05,
              -5.85
            ],
            [
              105.05,
              -7.05
            ]
          ]
        ]
      }
    },
    {
      "type": "Feature",
      "properties": {
        "name": "Bengkulu",
        "country": "Indonesia",
        "impact_status": "reported impact",
        "event": "Anak Krakatau 2026",
        "source_url": "https://www.bmkg.go.id/siaran-pers",
        "source_date": "2026-09-22",
        "last_updated": "2026-10-01T05:34:09+00:00",
        "note": "Approximate analytical coverage derived from keyword-detected official reporting; not an administrative boundary."
      },
      "geometry": {
        "type": "Polygon",
        "coordinates": [
          [
            [
              101.0,
              -5.55
            ],
            [
              104.0,
              -5.55
            ],
            [
              104.0,
              -2.45
            ],
            [
              101.0,
              -2.45
            ],
            [
              101.0,
              -5.55
            ]
          ]
        ]
      }
    },
    {
      "type": "Feature",
      "properties": {
        "name": "DKI Jakarta",
        "country": "Indonesia",
        "impact_status": "reported impact",
        "event": "Anak Krakatau 2026",
        "source_url": "https://www.nadma.gov.my/bi/media-en/news/7101-metmalaysia-anak-krakatau-ash-could-reach-malaysia-but-risk-remains-low",
        "source_date": "2026-09-09",
        "last_updated": "2026-10-01T05:34:09+00:00",
        "note": "Approximate analytical coverage derived from keyword-detected official reporting; not an administrative boundary."
      },
      "geometry": {
        "type": "Polygon",
        "coordinates": [
          [
            [
              106.63,
              -6.45
            ],
            [
              107.02,
              -6.45
            ],
            [
              107.02,
              -6.02
            ],
            [
              106.63,
              -6.02
            ],
            [
              106.63,
              -6.45
            ]
          ]
        ]
      }
    },
    {
      "type": "Feature",
      "properties": {
        "name": "Jawa Barat",
        "country": "Indonesia",
        "impact_status": "mentioned in source",
        "event": "Anak Krakatau 2026",
        "source_url": "http://geologi.esdm.go.id/media-center/laporan-khusus-penurunan-tingkat-aktivitas-gunungapi-anak-krakatau-provinsi-lampung-dari-level-iii-siaga-menjadi-level-ii-waspada-tanggal-21-september-2026-pukul-18-30-wib",
        "source_date": "2026-09-27",
        "last_updated": "2026-10-01T05:34:09+00:00",
        "note": "Approximate analytical coverage derived from keyword-detected official reporting; not an administrative boundary."
      },
      "geometry": {
        "type": "Polygon",
        "coordinates": [
          [
            [
              106.25,
              -7.85
            ],
            [
              108.85,
              -7.85
            ],
            [
              108.85,
              -5.85
            ],
            [
              106.25,
              -5.85
            ],
            [
              106.25,
              -7.85
            ]
          ]
        ]
      }
    },
    {
      "type": "Feature",
      "properties": {
        "name": "Lampung",
        "country": "Indonesia",
        "impact_status": "reported / monitored",
        "event": "Anak Krakatau 2026",
        "source_url": "http://geologi.esdm.go.id/media-center/laporan-khusus-penurunan-tingkat-aktivitas-gunungapi-anak-krakatau-provinsi-lampung-dari-level-iii-siaga-menjadi-level-ii-waspada-tanggal-21-september-2026-pukul-18-30-wib",
        "source_date": "2026-09-27",
        "last_updated": "2026-10-01T05:34:09+00:00",
        "note": "Approximate analytical coverage derived from keyword-detected official reporting; not an administrative boundary."
      },
      "geometry": {
        "type": "Polygon",
        "coordinates": [
          [
            [
              103.2,
              -5.95
            ],
            [
              105.75,
              -5.95
            ],
            [
              105.75,
              -3.75
            ],
            [
              103.2,
              -3.75
            ],
            [
              103.2,
              -5.95
            ]
          ]
        ]
      }
    },
    {
      "type": "Feature",
      "properties": {
        "name": "Malaysia",
        "country": "Malaysia",
        "impact_status": "mentioned in source",
        "event": "Anak Krakatau 2026",
        "source_url": "https://www.nadma.gov.my/bi/media-en/news/7101-metmalaysia-anak-krakatau-ash-could-reach-malaysia-but-risk-remains-low",
        "source_date": "2026-09-09",
        "last_updated": "2026-10-01T05:34:09+00:00",
        "note": "Approximate analytical coverage derived from keyword-detected official reporting; not an administrative boundary."
      },
      "geometry": {
        "type": "Polygon",
        "coordinates": [
          [
            [
              99.55,
              1.0
            ],
            [
              104.9,
              1.0
            ],
            [
              104.9,
              7.4
            ],
            [
              99.55,
              7.4
            ],
            [
              99.55,
              1.0
            ]
          ]
        ]
      }
    },
    {
      "type": "Feature",
      "properties": {
        "name": "Singapore",
        "country": "Singapore",
        "impact_status": "aviation impact / reported mention",
        "event": "Anak Krakatau 2026",
        "source_url": "https://www.nadma.gov.my/bi/media-en/news/7101-metmalaysia-anak-krakatau-ash-could-reach-malaysia-but-risk-remains-low",
        "source_date": "2026-09-09",
        "last_updated": "2026-10-01T05:34:09+00:00",
        "note": "Approximate analytical coverage derived from keyword-detected official reporting; not an administrative boundary."
      },
      "geometry": {
        "type": "Polygon",
        "coordinates": [
          [
            [
              103.58,
              1.15
            ],
            [
              104.1,
              1.15
            ],
            [
              104.1,
              1.48
            ],
            [
              103.58,
              1.48
            ],
            [
              103.58,
              1.15
            ]
          ]
        ]
      }
    }
  ]
}